<?xml version="1.0" encoding="UTF-8"?>
<kml xmlns="http://www.opengis.net/kml/2.2">
  <Document>
    <name>Informasjonslag uten navn</name>
    <Style id="poly-000000-1200-0-normal">
      <LineStyle>
        <color>ff000000</color>
        <width>1.2</width>
      </LineStyle>
      <PolyStyle>
        <color>00000000</color>
        <fill>1</fill>
        <outline>1</outline>
      </PolyStyle>
    </Style>
    <Style id="poly-000000-1200-0-highlight">
      <LineStyle>
        <color>ff000000</color>
        <width>1.8</width>
      </LineStyle>
      <PolyStyle>
        <color>00000000</color>
        <fill>1</fill>
        <outline>1</outline>
      </PolyStyle>
    </Style>
    <StyleMap id="poly-000000-1200-0">
      <Pair>
        <key>normal</key>
        <styleUrl>#poly-000000-1200-0-normal</styleUrl>
      </Pair>
      <Pair>
        <key>highlight</key>
        <styleUrl>#poly-000000-1200-0-highlight</styleUrl>
      </Pair>
    </StyleMap>
    <Placemark>
      <name>Sone 1 (MAX 180)</name>
      <description>Zone Operations</description>
      <styleUrl>#poly-000000-1200-0</styleUrl>
      <Polygon>
        <outerBoundaryIs>
          <LinearRing>
            <tessellate>1</tessellate>
            <coordinates>
              7.986121,58.14711,0
              7.990026,58.142535,0
              7.987537,58.139251,0
              7.99436,58.137778,0
              7.997236,58.135623,0
              7.999317,58.135031,0
              7.998995,58.138582,0
              8.000605,58.141414,0
              8.00828,58.14509,0
              8.009418,58.14329,0
              8.013023,58.143528,0
              8.012186,58.146812,0
              8.009997,58.148035,0
              8.00519,58.149235,0
              8.006349,58.150016,0
              8.005555,58.150345,0
              8.004246,58.149529,0
              8.003152,58.149994,0
              8.004268,58.150696,0
              8.003474,58.150979,0
              8.002337,58.150254,0
              8.001693,58.149937,0
              7.996243,58.152179,0
              7.986121,58.14711,0
            </coordinates>
          </LinearRing>
        </outerBoundaryIs>
      </Polygon>
    </Placemark>
    <Placemark>
      <name>Sone 2 (MAX 350)</name>
      <description>Zone Operations</description>
      <styleUrl>#poly-000000-1200-0</styleUrl>
      <Polygon>
        <outerBoundaryIs>
          <LinearRing>
            <tessellate>1</tessellate>
            <coordinates>
              7.9808104,58.1404936,0
              7.9830604,58.1378776,0
              7.9875203,58.1387716,0
              7.9890373,58.1407586,0
              7.9900113,58.1420596,0
              7.9861503,58.1466416,0
              7.9962712,58.1516926,0
              8.0017311,58.1494756,0
              8.0034901,58.1505006,0
              8.0042841,58.1502116,0
              8.0032221,58.1495146,0
              8.0042731,58.1490616,0
              8.0055611,58.1498776,0
              8.0063551,58.1495316,0
              8.0052711,58.1487676,0
              8.010015,58.1475836,0
              8.012215,58.1463606,0
              8.013071,58.1430546,0
              8.009437,58.1428276,0
              8.0083,58.1446056,0
              8.0006131,58.1409396,0
              7.9990222,58.1381116,0
              7.9993432,58.1345566,0
              7.9972552,58.1351486,0
              7.9943882,58.1373006,0
              7.9875353,58.1387736,0
              7.9865183,58.1385626,0
              7.9831124,58.1378526,0
              7.9904083,58.1295386,0
              8.013754,58.1299456,0
              8.0333307,58.1423736,0
              8.0411416,58.1483076,0
              8.0314037,58.1559226,0
              8.009377,58.1630566,0
              7.9970172,58.1659316,0
              7.9976182,58.1684156,0
              7.9939702,58.1708606,0
              7.9802374,58.1753416,0
              7.9761185,58.1741196,0
              7.9662746,58.1700346,0
              7.9542148,58.1656886,0
              7.9437549,58.1569766,0
              7.9439269,58.1536586,0
              7.9439679,58.1507316,0
              7.9455739,58.1451006,0
              7.9473518,58.1436416,0
              7.9523298,58.1420336,0
              7.9573727,58.1431886,0
              7.9600117,58.1424526,0
              7.9642176,58.1442756,0
              7.9656976,58.1429626,0
              7.9633166,58.1420106,0
              7.9629946,58.1406066,0
              7.9654616,58.1385446,0
              7.9699895,58.1403456,0
              7.9808104,58.1404936,0
            </coordinates>
          </LinearRing>
        </outerBoundaryIs>
      </Polygon>
    </Placemark>
    <Placemark>
      <name>Sone 3</name>
      <description>Zone Operations</description>
      <styleUrl>#poly-000000-1200-0</styleUrl>
      <Polygon>
        <outerBoundaryIs>
          <LinearRing>
            <tessellate>1</tessellate>
            <coordinates>
              7.98288,58.116158,0
              8.03614,58.119514,0
              8.07807,58.140996,0
              8.041242,58.148602,0
              8.02772,58.13929,0
              8.01377,58.130293,0
              7.990239,58.130012,0
              7.980771,58.140957,0
              7.970444,58.140802,0
              7.965268,58.139016,0
              7.962983,58.141061,0
              7.96293,58.142472,0
              7.965978,58.143405,0
              7.964178,58.144726,0
              7.959975,58.143103,0
              7.957317,58.143655,0
              7.95235,58.142463,0
              7.947049,58.14402,0
              7.945375,58.145594,0
              7.943937,58.151142,0
              7.943658,58.157573,0
              7.953871,58.165994,0
              7.97507,58.174141,0
              7.980091,58.175815,0
              7.993931,58.171311,0
              7.997562,58.169031,0
              7.996903,58.166388,0
              8.009117,58.163655,0
              8.031189,58.156402,0
              8.041109,58.148879,0
              8.07798,58.141174,0
              8.085877,58.16391,0
              8.041416,58.183463,0
              7.980992,58.181653,0
              7.939278,58.170429,0
              7.911984,58.151683,0
              7.926575,58.123683,0
              7.944599,58.11516,0
              7.98288,58.116158,0
            </coordinates>
          </LinearRing>
        </outerBoundaryIs>
      </Polygon>
    </Placemark>
  </Document>
</kml>
